{
  "prefectureCode": "13",
  "cities": [
    {
      "code": "13101",
      "name": "千代田区",
      "nameEn": "Chiyoda",
      "center": { "lat": 35.694, "lng": 139.7536 },
      "searchRadius": 3000
    },
    {
      "code": "13102",
      "name": "中央区",
      "nameEn": "Chuo",
      "center": { "lat": 35.6707, "lng": 139.772 },
      "searchRadius": 3000
    },
    {
      "code": "13103",
      "name": "港区",
      "nameEn": "Minato",
      "center": { "lat": 35.6584, "lng": 139.7515 },
      "searchRadius": 4000
    },
    {
      "code": "13104",
      "name": "新宿区",
      "nameEn": "Shinjuku",
      "center": { "lat": 35.6938, "lng": 139.7034 },
      "searchRadius": 4000
    },
    {
      "code": "13105",
      "name": "文京区",
      "nameEn": "Bunkyo",
      "center": { "lat": 35.7081, "lng": 139.7522 },
      "searchRadius": 3000
    },
    {
      "code": "13106",
      "name": "台東区",
      "nameEn": "Taito",
      "center": { "lat": 35.7126, "lng": 139.78 },
      "searchRadius": 3000
    },
    {
      "code": "13107",
      "name": "墨田区",
      "nameEn": "Sumida",
      "center": { "lat": 35.7107, "lng": 139.8015 },
      "searchRadius": 3000
    },
    {
      "code": "13108",
      "name": "江東区",
      "nameEn": "Koto",
      "center": { "lat": 35.6728, "lng": 139.8174 },
      "searchRadius": 4000
    },
    {
      "code": "13109",
      "name": "品川区",
      "nameEn": "Shinagawa",
      "center": { "lat": 35.6092, "lng": 139.73 },
      "searchRadius": 4000
    },
    {
      "code": "13110",
      "name": "目黒区",
      "nameEn": "Meguro",
      "center": { "lat": 35.6411, "lng": 139.6983 },
      "searchRadius": 3000
    },
    {
      "code": "13111",
      "name": "大田区",
      "nameEn": "Ota",
      "center": { "lat": 35.5612, "lng": 139.7162 },
      "searchRadius": 5000
    },
    {
      "code": "13112",
      "name": "世田谷区",
      "nameEn": "Setagaya",
      "center": { "lat": 35.6466, "lng": 139.6532 },
      "searchRadius": 5000
    },
    {
      "code": "13113",
      "name": "渋谷区",
      "nameEn": "Shibuya",
      "center": { "lat": 35.664, "lng": 139.6982 },
      "searchRadius": 4000
    },
    {
      "code": "13114",
      "name": "中野区",
      "nameEn": "Nakano",
      "center": { "lat": 35.7078, "lng": 139.6638 },
      "searchRadius": 3000
    },
    {
      "code": "13115",
      "name": "杉並区",
      "nameEn": "Suginami",
      "center": { "lat": 35.6997, "lng": 139.6366 },
      "searchRadius": 4000
    },
    {
      "code": "13116",
      "name": "豊島区",
      "nameEn": "Toshima",
      "center": { "lat": 35.7264, "lng": 139.7161 },
      "searchRadius": 3000
    },
    {
      "code": "13117",
      "name": "北区",
      "nameEn": "Kita",
      "center": { "lat": 35.7527, "lng": 139.7336 },
      "searchRadius": 4000
    },
    {
      "code": "13118",
      "name": "荒川区",
      "nameEn": "Arakawa",
      "center": { "lat": 35.7359, "lng": 139.7835 },
      "searchRadius": 3000
    },
    {
      "code": "13119",
      "name": "板橋区",
      "nameEn": "Itabashi",
      "center": { "lat": 35.7508, "lng": 139.7094 },
      "searchRadius": 4000
    },
    {
      "code": "13120",
      "name": "練馬区",
      "nameEn": "Nerima",
      "center": { "lat": 35.7356, "lng": 139.6516 },
      "searchRadius": 5000
    },
    {
      "code": "13121",
      "name": "足立区",
      "nameEn": "Adachi",
      "center": { "lat": 35.7748, "lng": 139.8046 },
      "searchRadius": 5000
    },
    {
      "code": "13122",
      "name": "葛飾区",
      "nameEn": "Katsushika",
      "center": { "lat": 35.7437, "lng": 139.8471 },
      "searchRadius": 4000
    },
    {
      "code": "13123",
      "name": "江戸川区",
      "nameEn": "Edogawa",
      "center": { "lat": 35.7067, "lng": 139.8684 },
      "searchRadius": 5000
    },
    {
      "code": "13201",
      "name": "八王子市",
      "nameEn": "Hachioji",
      "center": { "lat": 35.6664, "lng": 139.316 },
      "searchRadius": 8000
    },
    {
      "code": "13209",
      "name": "町田市",
      "nameEn": "Machida",
      "center": { "lat": 35.5481, "lng": 139.4386 },
      "searchRadius": 6000
    },
    {
      "code": "13202",
      "name": "立川市",
      "nameEn": "Tachikawa",
      "center": { "lat": 35.6979, "lng": 139.4142 },
      "searchRadius": 5000
    }
  ]
}
